FALCONSAT-10            
1 58291U 23174AM  26068.70247784  .00006748  00000+0  25969-3 0  9991
2 58291  97.3865 145.7938 0008932 169.5942 190.5483 15.26670596129582
STARLINK-31683          
1 59573U 24076K   26068.16360077 -.00000824  00000+0 -20416-4 0  9992
2 59573  43.0049  11.8462 0001170 281.5522  78.5198 15.27573131106423
